{
    "test": [{"id":1,"name":"Gerhold Group","city":"West Nehaborough","street":"Shayne Ridges","postalCode":"37857-3192","siret":"777882687108"},{"id":2,"name":"Bahringer, Hoeger and Schmidt","city":"White Plains","street":"Cruickshank Drive","postalCode":"79893","siret":"668635164541"},{"id":3,"name":"Runolfsdottir, Pollich and Leuschke","city":"Hansenstad","street":"Santa Ford","postalCode":"69414","siret":"608519234115"},{"id":4,"name":"Considine, Leuschke and Veum","city":"Kissimmee","street":"O'Conner Flat","postalCode":"35694-4531","siret":"898202718476"},{"id":5,"name":"Littel Group","city":"West Sidney","street":"Rippin Drive","postalCode":"00475-4444","siret":"195898815118"},{"id":6,"name":"Quigley - Pfeffer","city":"Charlotte","street":"Hassan Port","postalCode":"40802-5108","siret":"732774063940"},{"id":7,"name":"Jones - Crona","city":"New Ezequielbury","street":"Cormier Ford","postalCode":"79842-7277","siret":"112436413622"},{"id":8,"name":"Emmerich, Davis and McKenzie","city":"Las Vegas","street":"Amina Fall","postalCode":"21616","siret":"392543474289"},{"id":9,"name":"Corwin, Considine and Hane","city":"Jacobsshire","street":"Gerry Estate","postalCode":"89039","siret":"364959358625"},{"id":10,"name":"Volkman - Frami","city":"West Evert","street":"Kiehn Pines","postalCode":"17739","siret":"641177102433"},{"id":11,"name":"Hermiston, Kutch and Vandervort","city":"Stefaniebury","street":"Kuhlman Mill","postalCode":"31780","siret":"933450980031"},{"id":12,"name":"Corkery and Sons","city":"Jerdeworth","street":"Hoeger Land","postalCode":"42606","siret":"489556724926"},{"id":13,"name":"Kuhn - Heaney","city":"Kulasbury","street":"Brandy Lake","postalCode":"55898-4844","siret":"588567648610"},{"id":14,"name":"Boyer, Zieme and Boyer","city":"Cristianstead","street":"Donnell Ramp","postalCode":"10873-5688","siret":"962400736745"},{"id":15,"name":"Emmerich, Roob and Bailey","city":"Cummerataport","street":"Leuschke Highway","postalCode":"39709-1993","siret":"546796429516"},{"id":16,"name":"Lynch LLC","city":"Thompsonville","street":"Laurianne Fork","postalCode":"61366","siret":"871958088892"},{"id":17,"name":"Schneider LLC","city":"Jaquanmouth","street":"Cristal Viaduct","postalCode":"64590","siret":"120265792694"},{"id":18,"name":"Daniel, Lockman and Yundt","city":"West Carmine","street":"Pacocha Row","postalCode":"97741-2729","siret":"994578250139"},{"id":19,"name":"Swaniawski, Hagenes and Sauer","city":"Lake Edgarbury","street":"Josh Tunnel","postalCode":"92158","siret":"350262251499"},{"id":20,"name":"Lehner, Reichel and Frami","city":"West Aldaworth","street":"Lottie Unions","postalCode":"12033","siret":"784089780004"},{"id":21,"name":"Mills - Haley","city":"Dearborn Heights","street":"Jalen Extensions","postalCode":"15908-0523","siret":"747049226451"},{"id":22,"name":"Lynch and Sons","city":"Beckerboro","street":"O'Keefe Lodge","postalCode":"06199-2690","siret":"763771335612"},{"id":23,"name":"Christiansen - Zieme","city":"Lake Opheliaside","street":"Filiberto Port","postalCode":"63653-6867","siret":"703487397458"},{"id":24,"name":"Grant - Ratke","city":"New Marcia","street":"Kitty Views","postalCode":"67696-0516","siret":"957838491555"},{"id":25,"name":"Mann, Funk and Jast","city":"East Derontown","street":"Mann Ports","postalCode":"10796","siret":"877881137707"},{"id":26,"name":"Hegmann Group","city":"West Jolieton","street":"Bogisich Locks","postalCode":"96021-4286","siret":"263796604728"},{"id":27,"name":"Kirlin, Stroman and Baumbach","city":"Waltham","street":"Klein Forges","postalCode":"61688","siret":"293832653442"},{"id":28,"name":"Graham - Ernser","city":"Carrollberg","street":"Cremin Manors","postalCode":"11817-9656","siret":"613090654847"},{"id":29,"name":"Welch Group","city":"Vancouver","street":"Chance Prairie","postalCode":"73372-0715","siret":"196336825822"},{"id":30,"name":"Monahan LLC","city":"Port Aurelia","street":"Hettinger Land","postalCode":"55354","siret":"996030453130"},{"id":31,"name":"Breitenberg Inc","city":"Lynchport","street":"Mylene Estate","postalCode":"87664","siret":"959290973480"},{"id":32,"name":"Kerluke LLC","city":"Purdyberg","street":"Hermann Lights","postalCode":"82177-0935","siret":"194634752100"},{"id":33,"name":"Wyman, Cruickshank and Schumm","city":"Concepcionworth","street":"Goldner Light","postalCode":"87519-6435","siret":"143354522387"},{"id":34,"name":"VonRueden, Beahan and D'Amore","city":"New Caesar","street":"Hermann Hills","postalCode":"32128","siret":"332440535262"},{"id":35,"name":"Cormier, Koelpin and Connelly","city":"North Deron","street":"Myles Flats","postalCode":"97262-0830","siret":"782246492459"},{"id":36,"name":"Toy, Adams and Sauer","city":"Eddshire","street":"Donnelly Hill","postalCode":"17455-1134","siret":"754222747062"},{"id":37,"name":"Cole Group","city":"East Haroldstad","street":"Jessica Lights","postalCode":"58003-4951","siret":"979269906961"},{"id":38,"name":"Hayes - Hettinger","city":"East Samanthabury","street":"Rossie Mill","postalCode":"93408","siret":"818856528117"},{"id":39,"name":"Hilpert - Cartwright","city":"Rennercester","street":"Sedrick Drives","postalCode":"03467-5084","siret":"172071918538"},{"id":40,"name":"Rowe - Towne","city":"Schuppeburgh","street":"Lebsack Fields","postalCode":"54940-1867","siret":"645248189793"},{"id":41,"name":"D'Amore Inc","city":"Taraboro","street":"Mueller Fort","postalCode":"50016-2606","siret":"739571662715"},{"id":42,"name":"Ryan, Emard and Yundt","city":"Louisaburgh","street":"Creola Meadows","postalCode":"15978-2482","siret":"997142334936"},{"id":43,"name":"Cummerata LLC","city":"Port Mohammadmouth","street":"Trantow Union","postalCode":"56846","siret":"695194270589"},{"id":44,"name":"Mayert, Johnson and Roberts","city":"East Shawna","street":"Ritchie Coves","postalCode":"30244-5644","siret":"642338519954"},{"id":45,"name":"Cartwright Inc","city":"North Las Vegas","street":"Maya Mills","postalCode":"58652-7445","siret":"826268363756"},{"id":46,"name":"Greenholt, Bahringer and Goldner","city":"Fort Amely","street":"Anahi Unions","postalCode":"79182-5457","siret":"334360440694"},{"id":47,"name":"Murphy - Bashirian","city":"East Maudeberg","street":"Beer Lane","postalCode":"06352","siret":"473487405840"},{"id":48,"name":"Wunsch Inc","city":"Elenorabury","street":"Mayert Harbors","postalCode":"55744","siret":"779631889285"},{"id":49,"name":"Considine - Champlin","city":"East Aleenworth","street":"Huel Path","postalCode":"26690-3226","siret":"892638472927"},{"id":50,"name":"Lindgren, Hills and Glover","city":"East Claudineport","street":"Yundt Rapids","postalCode":"92901","siret":"821718435681"},{"id":51,"name":"Braun - Heaney","city":"Fort Tyree","street":"Bradley Dale","postalCode":"57129-4236","siret":"821426938537"},{"id":52,"name":"Herzog, Olson and Runte","city":"South Walter","street":"Sarai Square","postalCode":"26730-3953","siret":"463404328626"},{"id":53,"name":"Vandervort - Cummerata","city":"Borerfield","street":"Sonya Island","postalCode":"13957-7836","siret":"934682726602"},{"id":54,"name":"Gulgowski, Schaefer and Collins","city":"West Alexandraville","street":"McLaughlin Gateway","postalCode":"20215","siret":"534315408679"},{"id":55,"name":"Koelpin, Lebsack and Schroeder","city":"Clarafield","street":"Abigail Ranch","postalCode":"38408","siret":"341270012041"},{"id":56,"name":"Pollich Inc","city":"East Tara","street":"Padberg Fords","postalCode":"72415","siret":"895315341210"},{"id":57,"name":"Kovacek, Rosenbaum and Dare","city":"Rodrickville","street":"Margie Lock","postalCode":"78918-0095","siret":"787746716516"},{"id":58,"name":"Herzog and Sons","city":"New Davion","street":"Fletcher Meadow","postalCode":"03285-1198","siret":"444168259387"},{"id":59,"name":"Marvin, Donnelly and Lindgren","city":"Johnsmouth","street":"Clemens Ranch","postalCode":"54057","siret":"361836175072"}]
}
